CTC1_L_00456001-01
1 37198U 25142WN  26037.47806713  .00000000  00000+0  00000-0 0  9995
2 37198  53.0000   0.0000 0000000   0.0000   0.0000 15.62651920    16
CTC1_L_00456002-01
1 37199U 24940HO  26037.47806713  .00000000  00000+0  00000-0 0  9991
2 37199  53.0000  12.0000 0000000   0.0000  48.0000 15.62651920    12
CTC1_L_00456003-01
1 37200U 23128JW  26037.47806713  .00000000  00000+0  00000-0 0  9991
2 37200  53.0000  24.0000 0000000   0.0000  96.0000 15.62651920    11
CTC1_L_00456004-01
1 37201U 22235PF  26037.47806713  .00000000  00000+0  00000-0 0  9990
2 37201  53.0000  36.0000 0000000   0.0000 144.0000 15.62651920    19
CTC1_L_00456005-01
1 37202U 25048BT  26037.47806713  .00000000  00000+0  00000-0 0  9996
2 37202  53.0000  48.0000 0000000   0.0000 192.0000 15.62651920    16
CTC1_L_00456006-01
1 37203U 23534H   26037.47806713  .00000000  00000+0  00000-0 0  9995
2 37203  53.0000  60.0000 0000000   0.0000 240.0000 15.62651920    15
CTC1_L_00456007-01
1 37204U 22371QN  26037.47806713  .00000000  00000+0  00000-0 0  9994
2 37204  53.0000  72.0000 0000000   0.0000 288.0000 15.62651920    11
CTC1_L_00456008-01
1 37205U 22368DI  26037.47806713  .00000000  00000+0  00000-0 0  9991
2 37205  53.0000  84.0000 0000000   0.0000 336.0000 15.62651920    19
CTC1_L_00456009-01
1 37206U 25041AS  26037.47806713  .00000000  00000+0  00000-0 0  9993
2 37206  53.0000  96.0000 0000000   0.0000  24.0000 15.62651920    17
CTC1_L_00456010-01
1 37207U 23167LH  26037.47806713  .00000000  00000+0  00000-0 0  9991
2 37207  53.0000 108.0000 0000000   0.0000  72.0000 15.62651920    15
CTC1_L_00456011-01
1 37208U 25669YP  26037.47806713  .00000000  00000+0  00000-0 0  9991
2 37208  53.0000 120.0000 0000000   0.0000 120.0000 15.62651920    14
CTC1_L_00456012-01
1 37209U 23182NY  26037.47806713  .00000000  00000+0  00000-0 0  9990
2 37209  53.0000 132.0000 0000000   0.0000 168.0000 15.62651920    10
CTC1_L_00456013-01
1 37210U 25448YC  26037.47806713  .00000000  00000+0  00000-0 0  9999
2 37210  53.0000 144.0000 0000000   0.0000 216.0000 15.62651920    19
CTC1_L_00456014-01
1 37211U 25559YG  26037.47806713  .00000000  00000+0  00000-0 0  9993
2 37211  53.0000 156.0000 0000000   0.0000 264.0000 15.62651920    16
CTC1_L_00456015-01
1 37212U 26614VI  26037.47806713  .00000000  00000+0  00000-0 0  9997
2 37212  53.0000 168.0000 0000000   0.0000 312.0000 15.62651920    14
CTC1_L_00456016-01
1 37213U 24213HJ  26037.47806713  .00000000  00000+0  00000-0 0  9991
2 37213  53.0000 180.0000 0000000   0.0000   0.0000 15.62651920    13
CTC1_L_00456017-01
1 37214U 22506KI  26037.47806713  .00000000  00000+0  00000-0 0  9995
2 37214  53.0000 192.0000 0000000   0.0000  48.0000 15.62651920    19
CTC1_L_00456018-01
1 37215U 26475OO  26037.47806713  .00000000  00000+0  00000-0 0  9995
2 37215  53.0000 204.0000 0000000   0.0000  96.0000 15.62651920    17
CTC1_L_00456019-01
1 37216U 24554JO  26037.47806713  .00000000  00000+0  00000-0 0  9992
2 37216  53.0000 216.0000 0000000   0.0000 144.0000 15.62651920    15
CTC1_L_00456020-01
1 37217U 22960CJ  26037.47806713  .00000000  00000+0  00000-0 0  9992
2 37217  53.0000 228.0000 0000000   0.0000 192.0000 15.62651920    12
CTC1_L_00456021-01
1 37218U 23509SS  26037.47806713  .00000000  00000+0  00000-0 0  9993
2 37218  53.0000 240.0000 0000000   0.0000 240.0000 15.62651920    11
CTC1_L_00456022-01
1 37219U 24281QY  26037.47806713  .00000000  00000+0  00000-0 0  9992
2 37219  53.0000 252.0000 0000000   0.0000 288.0000 15.62651920    17
CTC1_L_00456023-01
1 37220U 24929UN  26037.47806713  .00000000  00000+0  00000-0 0  9993
2 37220  53.0000 264.0000 0000000   0.0000 336.0000 15.62651920    16
CTC1_L_00456024-01
1 37221U 26207MO  26037.47806713  .00000000  00000+0  00000-0 0  9995
2 37221  53.0000 276.0000 0000000   0.0000  24.0000 15.62651920    14
CTC1_L_00456025-01
1 37222U 24848JY  26037.47806713  .00000000  00000+0  00000-0 0  9995
2 37222  53.0000 288.0000 0000000   0.0000  72.0000 15.62651920    11
CTC1_L_00456026-01
1 37223U 23281KN  26037.47806713  .00000000  00000+0  00000-0 0  9996
2 37223  53.0000 300.0000 0000000   0.0000 120.0000 15.62651920    11
CTC1_L_00456027-01
1 37224U 22238SI  26037.47806713  .00000000  00000+0  00000-0 0  9998
2 37224  53.0000 312.0000 0000000   0.0000 168.0000 15.62651920    17
CTC1_L_00456028-01
1 37225U 26688KK  26037.47806713  .00000000  00000+0  00000-0 0  9992
2 37225  53.0000 324.0000 0000000   0.0000 216.0000 15.62651920    15
CTC1_L_00456029-01
1 37226U 23382SZ  26037.47806713  .00000000  00000+0  00000-0 0  9991
2 37226  53.0000 336.0000 0000000   0.0000 264.0000 15.62651920    12
CTC1_L_00456030-01
1 37227U 22297AE  26037.47806713  .00000000  00000+0  00000-0 0  9996
2 37227  53.0000 348.0000 0000000   0.0000 312.0000 15.62651920    10
